{"type": "FeatureCollection", "features": [{"type": "Feature", "properties": {"norad_id": 22675, "name": "COSMOS 2251", "group": "cosmos-2251-debris", "lat": 62.67428955264861, "lon": 110.62018416443945, "alt_km": 767.193999009437, "timestamp": "2025-12-08T03:50:07.388436+00:00", "meta": {"OBJECT_NAME": "COSMOS 2251", "OBJECT_ID": "1993-036A", "EPOCH": "2025-12-07T05:32:12.030720", "MEAN_MOTION": 14.33202156, "ECCENTRICITY": 0.00237896, "INCLINATION": 74.0393, "RA_OF_ASC_NODE": 325.9499, "ARG_OF_PERICENTER": 49.9401, "MEAN_ANOMALY": 310.3831, "EPHEMERIS_TYPE": 0, "CLASSIFICATION_TYPE": "U", "NORAD_CAT_ID": 22675, "ELEMENT_SET_NO": 999, "REV_AT_EPOCH": 69694, "BSTAR": 9.5135957e-05, "MEAN_MOTION_DOT": 2.36e-06, "MEAN_MOTION_DDOT": 0}, "tle": {"line1": "1 22675U 93036A   25341.23069480  .00000236  00000+0  95136-4 0  9998", "line2": "2 22675  74.0393 325.9499 0023789  49.9401 310.3831 14.33202156696947"}}, "geometry": {"type": "Point", "coordinates": [110.62018416443945, 62.67428955264861]}}, {"type": "Feature", "properties": {"norad_id": 33757, "name": "COSMOS 2251 DEB", "group": "cosmos-2251-debris", "lat": 17.866866034860184, "lon": 146.67819681434193, "alt_km": 793.8796047786145, "timestamp": "2025-12-08T03:50:07.388459+00:00", "meta": {"OBJECT_NAME": "COSMOS 2251 DEB", "OBJECT_ID": "1993-036E", "EPOCH": "2025-12-07T00:33:28.348992", "MEAN_MOTION": 14.32578712, "ECCENTRICITY": 0.0015039, "INCLINATION": 74.0366, "RA_OF_ASC_NODE": 334.0464, "ARG_OF_PERICENTER": 348.4109, "MEAN_ANOMALY": 73.6307, "EPHEMERIS_TYPE": 0, "CLASSIFICATION_TYPE": "U", "NORAD_CAT_ID": 33757, "ELEMENT_SET_NO": 999, "REV_AT_EPOCH": 87914, "BSTAR": 7.6061625e-05, "MEAN_MOTION_DOT": 1.81e-06, "MEAN_MOTION_DDOT": 0}, "tle": {"line1": "1 33757U 93036E   25341.02324478  .00000181  00000+0  76062-4 0  9995", "line2": "2 33757  74.0366 334.0464 0015039 348.4109  73.6307 14.32578712879149"}}, "geometry": {"type": "Point", "coordinates": [146.67819681434193, 17.866866034860184]}}, {"type": "Feature", "properties": {"norad_id": 33758, "name": "COSMOS 2251 DEB", "group": "cosmos-2251-debris", "lat": 25.100382121747046, "lon": 35.94653330889881, "alt_km": 728.547026512395, "timestamp": "2025-12-08T03:50:07.388473+00:00", "meta": {"OBJECT_NAME": "COSMOS 2251 DEB", "OBJECT_ID": "1993-036F", "EPOCH": "2025-12-07T03:00:32.412096", "MEAN_MOTION": 14.51542303, "ECCENTRICITY": 0.00175206, "INCLINATION": 74.0281, "RA_OF_ASC_NODE": 225.6042, "ARG_OF_PERICENTER": 292.8033, "MEAN_ANOMALY": 217.7515, "EPHEMERIS_TYPE": 0, "CLASSIFICATION_TYPE": "U", "NORAD_CAT_ID": 33758, "ELEMENT_SET_NO": 999, "REV_AT_EPOCH": 88223, "BSTAR": 0.0013638613, "MEAN_MOTION_DOT": 5.444e-05, "MEAN_MOTION_DDOT": 0}, "tle": {"line1": "1 33758U 93036F   25341.12537514  .00005444  00000+0  13639-2 0  9990", "line2": "2 33758  74.0281 225.6042 0017520 292.8033 217.7515 14.51542303882232"}}, "geometry": {"type": "Point", "coordinates": [35.94653330889881, 25.100382121747046]}}, {"type": "Feature", "properties": {"norad_id": 33760, "name": "COSMOS 2251 DEB", "group": "cosmos-2251-debris", "lat": -2.5080134674099064, "lon": -70.85607531413031, "alt_km": 763.8658742209045, "timestamp": "2025-12-08T03:50:07.388485+00:00", "meta": {"OBJECT_NAME": "COSMOS 2251 DEB", "OBJECT_ID": "1993-036H", "EPOCH": "2025-12-06T23:43:32.234592", "MEAN_MOTION": 14.35666432, "ECCENTRICITY": 0.00196355, "INCLINATION": 74.0318, "RA_OF_ASC_NODE": 292.0112, "ARG_OF_PERICENTER": 31.9627, "MEAN_ANOMALY": 34.6564, "EPHEMERIS_TYPE": 0, "CLASSIFICATION_TYPE": "U", "NORAD_CAT_ID": 33760, "ELEMENT_SET_NO": 999, "REV_AT_EPOCH": 88042, "BSTAR": 0.00020665699, "MEAN_MOTION_DOT": 5.72e-06, "MEAN_MOTION_DDOT": 0}, "tle": {"line1": "1 33760U 93036H   25340.98856753  .00000572  00000+0  20666-3 0  9991", "line2": "2 33760  74.0318 292.0112 0019635  31.9627  34.6564 14.35666432880423"}}, "geometry": {"type": "Point", "coordinates": [-70.85607531413031, -2.5080134674099064]}}, {"type": "Feature", "properties": {"norad_id": 33761, "name": "COSMOS 2251 DEB", "group": "cosmos-2251-debris", "lat": 6.336344438488585, "lon": 78.83913218558565, "alt_km": 767.8828270965705, "timestamp": "2025-12-08T03:50:07.388498+00:00", "meta": {"OBJECT_NAME": "COSMOS 2251 DEB", "OBJECT_ID": "1993-036J", "EPOCH": "2025-12-06T21:22:04.592352", "MEAN_MOTION": 14.42516969, "ECCENTRICITY": 0.00228744, "INCLINATION": 74.037, "RA_OF_ASC_NODE": 263.0147, "ARG_OF_PERICENTER": 344.1337, "MEAN_ANOMALY": 79.3928, "EPHEMERIS_TYPE": 0, "CLASSIFICATION_TYPE": "U", "NORAD_CAT_ID": 33761, "ELEMENT_SET_NO": 999, "REV_AT_EPOCH": 88150, "BSTAR": 0.00097592114, "MEAN_MOTION_DOT": 3.221e-05, "MEAN_MOTION_DDOT": 0}, "tle": {"line1": "1 33761U 93036J   25340.89033093  .00003221  00000+0  97592-3 0  9992", "line2": "2 33761  74.0370 263.0147 0022874 344.1337  79.3928 14.42516969881501"}}, "geometry": {"type": "Point", "coordinates": [78.83913218558565, 6.336344438488585]}}, {"type": "Feature", "properties": {"norad_id": 33762, "name": "COSMOS 2251 DEB", "group": "cosmos-2251-debris", "lat": -30.232792836914772, "lon": -51.198237415467496, "alt_km": 778.7040252646129, "timestamp": "2025-12-08T03:50:07.388510+00:00", "meta": {"OBJECT_NAME": "COSMOS 2251 DEB", "OBJECT_ID": "1993-036K", "EPOCH": "2025-12-06T23:46:14.822976", "MEAN_MOTION": 14.33660922, "ECCENTRICITY": 0.00147765, "INCLINATION": 74.0413, "RA_OF_ASC_NODE": 320.5384, "ARG_OF_PERICENTER": 23.7006, "MEAN_ANOMALY": 32.1082, "EPHEMERIS_TYPE": 0, "CLASSIFICATION_TYPE": "U", "NORAD_CAT_ID": 33762, "ELEMENT_SET_NO": 999, "REV_AT_EPOCH": 87965, "BSTAR": 9.0005473e-05, "MEAN_MOTION_DOT": 2.24e-06, "MEAN_MOTION_DDOT": 0}, "tle": {"line1": "1 33762U 93036K   25340.99044934  .00000224  00000+0  90005-4 0  9993", "line2": "2 33762  74.0413 320.5384 0014776  23.7006  32.1082 14.33660922879657"}}, "geometry": {"type": "Point", "coordinates": [-51.198237415467496, -30.232792836914772]}}, {"type": "Feature", "properties": {"norad_id": 33764, "name": "COSMOS 2251 DEB", "group": "cosmos-2251-debris", "lat": 11.86253263595121, "lon": -75.4379416436404, "alt_km": 770.9416988763469, "timestamp": "2025-12-08T03:50:07.388521+00:00", "meta": {"OBJECT_NAME": "COSMOS 2251 DEB", "OBJECT_ID": "1993-036M", "EPOCH": "2025-12-07T06:25:40.283040", "MEAN_MOTION": 14.39492056, "ECCENTRICITY": 0.00241577, "INCLINATION": 74.0345, "RA_OF_ASC_NODE": 282.7609, "ARG_OF_PERICENTER": 249.459, "MEAN_ANOMALY": 182.2338, "EPHEMERIS_TYPE": 0, "CLASSIFICATION_TYPE": "U", "NORAD_CAT_ID": 33764, "ELEMENT_SET_NO": 999, "REV_AT_EPOCH": 88078, "BSTAR": 0.0006784762, "MEAN_MOTION_DOT": 2.096e-05, "MEAN_MOTION_DDOT": 0}, "tle": {"line1": "1 33764U 93036M   25341.26782735  .00002096  00000+0  67848-3 0  9991", "line2": "2 33764  74.0345 282.7609 0024157 249.4590 182.2338 14.39492056880785"}}, "geometry": {"type": "Point", "coordinates": [-75.4379416436404, 11.86253263595121]}}, {"type": "Feature", "properties": {"norad_id": 33765, "name": "COSMOS 2251 DEB", "group": "cosmos-2251-debris", "lat": 53.48718707904422, "lon": -20.21698306744415, "alt_km": 572.8299759289648, "timestamp": "2025-12-08T03:50:07.388532+00:00", "meta": {"OBJECT_NAME": "COSMOS 2251 DEB", "OBJECT_ID": "1993-036N", "EPOCH": "2025-12-07T07:22:53.222016", "MEAN_MOTION": 15.09502975, "ECCENTRICITY": 0.00667314, "INCLINATION": 74.0092, "RA_OF_ASC_NODE": 184.3338, "ARG_OF_PERICENTER": 277.4427, "MEAN_ANOMALY": 256.6889, "EPHEMERIS_TYPE": 0, "CLASSIFICATION_TYPE": "U", "NORAD_CAT_ID": 33765, "ELEMENT_SET_NO": 999, "REV_AT_EPOCH": 89536, "BSTAR": 0.0029196811, "MEAN_MOTION_DOT": 0.00049616, "MEAN_MOTION_DDOT": 0}, "tle": {"line1": "1 33765U 93036N   25341.30756044  .00049616  00000+0  29197-2 0  9994", "line2": "2 33765  74.0092 184.3338 0066731 277.4427 256.6889 15.09502975895362"}}, "geometry": {"type": "Point", "coordinates": [-20.21698306744415, 53.48718707904422]}}, {"type": "Feature", "properties": {"norad_id": 33766, "name": "COSMOS 2251 DEB", "group": "cosmos-2251-debris", "lat": 47.77206859186555, "lon": -54.90035220003845, "alt_km": 806.4681257774073, "timestamp": "2025-12-08T03:50:07.388543+00:00", "meta": {"OBJECT_NAME": "COSMOS 2251 DEB", "OBJECT_ID": "1993-036P", "EPOCH": "2025-12-07T03:48:34.015392", "MEAN_MOTION": 14.34909743, "ECCENTRICITY": 0.00638732, "INCLINATION": 74.1852, "RA_OF_ASC_NODE": 145.1134, "ARG_OF_PERICENTER": 350.0613, "MEAN_ANOMALY": 9.9271, "EPHEMERIS_TYPE": 0, "CLASSIFICATION_TYPE": "U", "NORAD_CAT_ID": 33766, "ELEMENT_SET_NO": 999, "REV_AT_EPOCH": 87665, "BSTAR": 0.00082866707, "MEAN_MOTION_DOT": 2.386e-05, "MEAN_MOTION_DDOT": 0}, "tle": {"line1": "1 33766U 93036P   25341.15872703  .00002386  00000+0  82867-3 0  9996", "line2": "2 33766  74.1852 145.1134 0063873 350.0613   9.9271 14.34909743876652"}}, "geometry": {"type": "Point", "coordinates": [-54.90035220003845, 47.77206859186555]}}, {"type": "Feature", "properties": {"norad_id": 33768, "name": "COSMOS 2251 DEB", "group": "cosmos-2251-debris", "lat": -51.50067473975912, "lon": 68.30284967171896, "alt_km": 1284.48078698481, "timestamp": "2025-12-08T03:50:07.388554+00:00", "meta": {"OBJECT_NAME": "COSMOS 2251 DEB", "OBJECT_ID": "1993-036R", "EPOCH": "2025-12-07T00:38:57.187392", "MEAN_MOTION": 13.58447436, "ECCENTRICITY": 0.03660272, "INCLINATION": 74.0687, "RA_OF_ASC_NODE": 229.0865, "ARG_OF_PERICENTER": 28.0818, "MEAN_ANOMALY": 70.803, "EPHEMERIS_TYPE": 0, "CLASSIFICATION_TYPE": "U", "NORAD_CAT_ID": 33768, "ELEMENT_SET_NO": 999, "REV_AT_EPOCH": 83218, "BSTAR": 0.00059278001, "MEAN_MOTION_DOT": 6.48e-06, "MEAN_MOTION_DDOT": 0}, "tle": {"line1": "1 33768U 93036R   25341.02705078  .00000648  00000+0  59278-3 0  9993", "line2": "2 33768  74.0687 229.0865 0366027  28.0818  70.8030 13.58447436832189"}}, "geometry": {"type": "Point", "coordinates": [68.30284967171896, -51.50067473975912]}}]}